{
  "norad_id": 65048,
  "name": "HULIANWANG DIGUI-45",
  "history": [
    {
      "epoch": "2026-03-28T19:59:14.668224",
      "apogee_km": 1150.0055945661707,
      "perigee_km": 1148.5406100120636,
      "latitude_deg": 46.25437360017627,
      "longitude_deg": 44.749631360173225,
      "semi_major_axis_km": 7527.410102289117,
      "eccentricity": 9.731e-05,
      "inclination_deg": 50.0039,
      "raan_deg": 193.8917,
      "arg_perigee_deg": 162.1317,
      "mean_anomaly_deg": 197.9589,
      "mean_motion_rev_day": 13.29334866
    },
    {
      "epoch": "2026-03-29T03:12:16.509888",
      "apogee_km": 1149.9999367476066,
      "perigee_km": 1148.545641176379,
      "latitude_deg": -14.330215158390933,
      "longitude_deg": 73.61834431998432,
      "semi_major_axis_km": 7527.4097889619925,
      "eccentricity": 9.66e-05,
      "inclination_deg": 50.0039,
      "raan_deg": 192.8133,
      "arg_perigee_deg": 163.2794,
      "mean_anomaly_deg": 196.811,
      "mean_motion_rev_day": 13.29334949
    }
  ]
}